     2.11           N: GPS NAV DATA                         RINEX VERSION / TYPE
teqc  2019Feb25                         20221121 12:24:12UTCPGM / RUN BY / DATE
OSX ker:10.11.6|Core i5|gcc 4.3 -m64|OSX ker:10.10+|=+      COMMENT
    5.5879D-09  1.4901D-08 -5.9605D-08 -1.1921D-07          ION ALPHA
    8.3968D+04  9.8304D+04 -6.5536D+04 -5.2429D+05          ION BETA
    1.862645149231D-09 1.421085471520D-14   147456     1536 DELTA-UTC: A0,A1,T,W
                                                            END OF HEADER
12 09  6 14 18  0  0.0-2.663964405656D-04 5.798028723802D-12 0.000000000000D+00
    7.700000000000D+01-6.309375000000D+01 4.449471052615D-09 2.350447570124D+00
   -3.188848495483D-06 3.306337632239D-03 6.422400474548D-06 5.153642532349D+03
    6.480000000000D+04 4.656612873077D-08-2.859673769051D+00 3.911554813385D-08
    9.674161980249D-01 2.578750000000D+02-6.812166469505D-01-8.041049227691D-09
   -2.403671551140D-10 1.000000000000D+00 1.536000000000D+03 0.000000000000D+00
    2.000000000000D+00 0.000000000000D+00-1.164153218269D-08 7.700000000000D+01
    5.761800000000D+04 4.000000000000D+00
17 09  6 14 18  0  0.0 6.446009501815D-05 2.160049916711D-12 0.000000000000D+00
    6.100000000000D+01-1.946875000000D+01 4.310179536278D-09-1.220463433132D+00
   -1.037493348122D-06 4.542134120129D-03 1.058168709278D-05 5.153696695328D+03
    6.480000000000D+04 1.769512891769D-07-1.800454060458D+00-1.229345798492D-07
    9.594116091502D-01 1.776250000000D+02-2.635864947178D+00-7.854970048174D-09
    1.964367538078D-11 1.000000000000D+00 1.536000000000D+03 0.000000000000D+00
    2.000000000000D+00 0.000000000000D+00-1.024454832077D-08 6.100000000000D+01
    5.761800000000D+04 4.000000000000D+00
11 09  6 14 18  0  0.0-6.479211151600D-06-1.477928890381D-12 0.000000000000D+00
    6.300000000000D+01 4.893750000000D+01 6.230616673051D-09 2.158693761551D+00
    2.510845661163D-06 9.387940634042D-03 7.163733243942D-06 5.153685171127D+03
    6.480000000000D+04-1.378357410431D-07-9.847802719826D-01-1.210719347000D-07
    8.891730910226D-01 2.017187500000D+02 6.997133062335D-01-8.895013370153D-09
    2.871548182937D-10 1.000000000000D+00 1.536000000000D+03 0.000000000000D+00
    2.000000000000D+00 0.000000000000D+00-1.164153218269D-08 6.300000000000D+01
    5.761800000000D+04 4.000000000000D+00
30 09  6 14 18  0  0.0 1.536910422146D-04 2.728484105319D-12 0.000000000000D+00
    8.400000000000D+01-5.771875000000D+01 4.890918012081D-09-2.068863663104D-01
   -2.916902303696D-06 1.149200135842D-02 6.236135959625D-06 5.153585205078D+03
    6.480000000000D+04-1.229345798492D-07-2.907710375317D+00 5.401670932770D-08
    9.524912093449D-01 2.533750000000D+02 1.420837097351D+00-8.517854802842D-09
   -1.946509651369D-10 1.000000000000D+00 1.536000000000D+03 0.000000000000D+00
    2.800000000000D+00 0.000000000000D+00-8.381903171539D-09 8.400000000000D+01
    5.761800000000D+04 4.000000000000D+00
22 09  6 14 17 59 44.0 1.974762417376D-04-1.136868377216D-12 0.000000000000D+00
    1.000000000000D+00-2.562500000000D+00 5.113427280485D-09-9.463857295186D-01
    7.450580596924D-09 5.060388240963D-03 6.604939699173D-06 5.153657962799D+03
    6.478400000000D+04-7.636845111847D-08 3.112440692962D-01 1.117587089539D-07
    9.400781256159D-01 2.428125000000D+02-1.889626291960D+00-8.412136113520D-09
   -1.592923494515D-10 1.000000000000D+00 1.536000000000D+03 0.000000000000D+00
    2.000000000000D+00 0.000000000000D+00-1.769512891769D-08 1.000000000000D+00
    5.761800000000D+04 4.000000000000D+00
27 09  6 14 18  0  0.0 5.750311538577D-05 3.183231456205D-12 0.000000000000D+00
    8.500000000000D+01 2.481250000000D+01 4.395540234751D-09-1.531951277246D+00
    1.741573214531D-06 2.128053130582D-02 5.513429641724D-06 5.153781015396D+03
    6.480000000000D+04 2.048909664154D-08 2.313633700405D+00 5.494803190231D-07
    9.746015337573D-01 2.802187500000D+02-1.585336949842D+00-8.036049019412D-09
    1.367914121971D-10 1.000000000000D+00 1.536000000000D+03 0.000000000000D+00
    4.000000000000D+00 0.000000000000D+00-4.190951585770D-09 8.500000000000D+01
    5.761800000000D+04 4.000000000000D+00
32 09  6 14 18  0  0.0 2.471497282386D-04-5.570655048359D-12 0.000000000000D+00
    2.600000000000D+01-3.437500000000D-01 4.494830084858D-09 3.109420361073D+00
   -2.142041921616D-07 1.330068171956D-02 6.953254342079D-06 5.153547750473D+03
    6.480000000000D+04 1.974403858185D-07 3.616604058647D-01 2.291053533554D-07
    9.640671440548D-01 2.400625000000D+02-1.158550883575D+00-7.902472026823D-09
   -1.967939115420D-10 1.000000000000D+00 1.536000000000D+03 0.000000000000D+00
    2.000000000000D+00 0.000000000000D+00-3.259629011154D-09 2.600000000000D+01
    5.776200000000D+04 4.000000000000D+00
27 09  6 14 17 59 44.0 5.750171840191D-05 3.183231456205D-12 0.000000000000D+00
    1.200000000000D+01 2.481250000000D+01 4.395540234751D-09-1.534284738375D+00
    1.741573214531D-06 2.128053351771D-02 5.513429641724D-06 5.153781021118D+03
    6.478400000000D+04 2.048909664154D-08 2.313633823290D+00 5.494803190231D-07
    9.746015191281D-01 2.802187500000D+02-1.585336964471D+00-8.036049019412D-09
    1.367914121971D-10 1.000000000000D+00 1.536000000000D+03 0.000000000000D+00
    2.000000000000D+00 0.000000000000D+00-4.190951585770D-09 1.200000000000D+01
    5.899800000000D+04 4.000000000000D+00
31 09  6 14 18  0  0.0-6.228871643543D-05-6.821210263297D-13 0.000000000000D+00
    8.500000000000D+01 1.250000000000D+01 4.505901974618D-09 2.153571434357D+00
    8.046627044678D-07 7.014217553660D-03 4.462897777557D-06 5.153727518082D+03
    6.480000000000D+04 1.266598701477D-07 2.369620878758D+00-3.352761268616D-08
    9.730373539515D-01 2.942500000000D+02-1.137623438148D+00-8.075336370173D-09
    5.357366012941D-12 1.000000000000D+00 1.536000000000D+03 0.000000000000D+00
    2.000000000000D+00 0.000000000000D+00-1.303851604462D-08 8.500000000000D+01
    6.004200000000D+04 4.000000000000D+00
20 09  6 14 18  0  0.0 7.993215695024D-05-1.023181539495D-12 0.000000000000D+00
    8.100000000000D+01-2.593750000000D+00 5.130928009461D-09 2.336522431824D-01
   -4.619359970093D-07 3.929549595341D-03 6.660819053650D-06 5.153589174271D+03
    6.480000000000D+04-1.676380634308D-08 2.517677845102D-01 3.166496753693D-08
    9.420798642192D-01 2.414062500000D+02 1.365961783551D+00-8.472852928334D-09
   -2.021512775550D-10 1.000000000000D+00 1.536000000000D+03 0.000000000000D+00
    2.000000000000D+00 0.000000000000D+00-6.519258022308D-09 8.100000000000D+01
    6.103200000000D+04 4.000000000000D+00
32 09  6 14 17 59 28.0 2.471497282386D-04-5.570655048359D-12 0.000000000000D+00
    2.100000000000D+01-3.437500000000D-01 4.494830084858D-09 3.104752486455D+00
   -2.142041921616D-07 1.330067531671D-02 6.953254342079D-06 5.153547744751D+03
    6.476800000000D+04 1.974403858185D-07 3.616606574866D-01 2.291053533554D-07
    9.640671455177D-01 2.400625000000D+02-1.158550784096D+00-7.902472026823D-09
   -1.967939115420D-10 1.000000000000D+00 1.536000000000D+03 0.000000000000D+00
    2.000000000000D+00 0.000000000000D+00-3.259629011154D-09 2.100000000000D+01
    6.199800000000D+04 4.000000000000D+00
 4 09  6 14 17 59 44.0-1.328582875431D-04-1.591615728103D-11 0.000000000000D+00
    3.000000000000D+01 3.871875000000D+01 5.025923635607D-09 6.160354000500D-01
    2.142041921616D-06 8.583333925344D-03 6.832182407379D-06 5.153752141953D+03
    6.478400000000D+04-3.539025783539D-08-7.654067514749D-01 1.601874828339D-07
    9.403569431726D-01 2.368750000000D+02 4.893508285919D-01-8.396064015482D-09
    1.796503403006D-10 1.000000000000D+00 1.536000000000D+03 0.000000000000D+00
    2.000000000000D+00 0.000000000000D+00-6.053596735001D-09 3.000000000000D+01
    6.424200000000D+04 4.000000000000D+00
30 09  6 14 20  0  0.0 1.537110656500D-04 2.728484105319D-12 0.000000000000D+00
    9.300000000000D+01-5.809375000000D+01 4.988064915783D-09 8.433578834353D-01
   -3.084540367126D-06 1.149139238987D-02 6.321817636490D-06 5.153584053040D+03
    7.200000000000D+04-1.583248376846D-07-2.907771563329D+00-1.862645149231D-08
    9.524896293934D-01 2.580000000000D+02 1.420831323213D+00-8.504282808943D-09
   -2.246522148093D-10 1.000000000000D+00 1.536000000000D+03 0.000000000000D+00
    2.800000000000D+00 0.000000000000D+00-8.381903171539D-09 9.300000000000D+01
    6.481800000000D+04 4.000000000000D+00
14 09  6 14 20  0  0.0-9.484961628914D-05 5.798028723802D-12 0.000000000000D+00
    1.120000000000D+02 2.190625000000D+01 3.911234347181D-09-7.070931047403D-01
    1.277774572372D-06 4.496742738411D-03 8.409842848778D-06 5.153617233276D+03
    7.200000000000D+04-3.166496753693D-08 1.362168545228D+00 9.126961231232D-08
    9.881724293710D-01 2.349375000000D+02-2.160638763803D+00-7.788538709614D-09
    8.750364487804D-11 1.000000000000D+00 1.536000000000D+03 0.000000000000D+00
    2.800000000000D+00 0.000000000000D+00-9.313225746155D-09 1.120000000000D+02
    6.481800000000D+04 4.000000000000D+00
31 09  6 14 20  0  0.0-6.229337304831D-05-6.821210263297D-13 0.000000000000D+00
    8.600000000000D+01 1.178125000000D+01 4.522331230391D-09-3.079566877099D+00
    8.326023817062D-07 7.012595538981D-03 5.414709448814D-06 5.153730827332D+03
    7.200000000000D+04 7.264316082001D-08 2.369561744684D+00 2.086162567139D-07
    9.730380049500D-01 2.815937500000D+02-1.137522733793D+00-8.061764376274D-09
    1.989368579472D-10 1.000000000000D+00 1.536000000000D+03 0.000000000000D+00
    2.000000000000D+00 0.000000000000D+00-1.303851604462D-08 8.600000000000D+01
    6.481800000000D+04 4.000000000000D+00
